0 SL-16 DEB
1 24302U 96051F   13283.20133133  .00000006  00000-0  48557-4 0  5181
2 24302 070.9884 232.1273 0211940 297.6524 194.7672 13.70281540855107
0 SL-16 DEB
1 24302U 96051F   13285.53342715 -.00000002  00000-0  40469-4 0  5199
2 24302 070.9887 227.5761 0211909 294.4052 178.9885 13.70282017855421
0 SL-16 DEB
1 24302U 96051F   13288.52548737  .00000076  00000-0  11536-3 0  5207
2 24302 070.9889 221.7372 0211917 290.2291 178.8280 13.70282288855838
0 SL-16 DEB
1 24302U 96051F   13291.00289543  .00000066  00000-0  10656-3 0  5213
2 24302 070.9888 216.9031 0211937 286.7687 159.8925 13.70282680856175
0 SL-16 DEB
1 24302U 96051F   13293.20654128  .00000055  00000-0  95628-4 0  5224
2 24302 070.9886 212.6031 0211864 283.7030 230.4762 13.70283236856470
0 SL-16 DEB
1 24302U 96051F   13295.46077789  .00000019  00000-0  60751-4 0  5236
2 24302 070.9885 208.2043 0211812 280.5595 190.6357 13.70283912856789
